{
    "CCSDS_OMM_VERS": "3.0",
    "COMMENT": "GENERATED VIA SPACE-TRACK.ORG API",
    "CREATION_DATE": "2025-05-22T17:14:14",
    "ORIGINATOR": "18 SPCS",
    "OBJECT_NAME": "GALILEO 12 (269)",
    "OBJECT_ID": "2015-079A",
    "CENTER_NAME": "EARTH",
    "REF_FRAME": "TEME",
    "TIME_SYSTEM": "UTC",
    "MEAN_ELEMENT_THEORY": "SGP4",
    "EPOCH": "2025-05-21T18:53:28.889952",
    "MEAN_MOTION": "1.70474021",
    "ECCENTRICITY": "0.00055350",
    "INCLINATION": "55.5962",
    "RA_OF_ASC_NODE": "112.0090",
    "ARG_OF_PERICENTER": "322.7991",
    "MEAN_ANOMALY": "37.1380",
    "EPHEMERIS_TYPE": "0",
    "CLASSIFICATION_TYPE": "U",
    "NORAD_CAT_ID": "41174",
    "ELEMENT_SET_NO": "999",
    "REV_AT_EPOCH": "5810",
    "BSTAR": "0.00000000000000",
    "MEAN_MOTION_DOT": "0.00000062",
    "MEAN_MOTION_DDOT": "0.0000000000000",
    "SEMIMAJOR_AXIS": "29600.318",
    "PERIOD": "844.703",
    "APOAPSIS": "23238.566",
    "PERIAPSIS": "23205.799",
    "OBJECT_TYPE": "PAYLOAD",
    "RCS_SIZE": "LARGE",
    "COUNTRY_CODE": "ESA",
    "LAUNCH_DATE": "2015-12-17",
    "SITE": "FRGUI",
    "DECAY_DATE": null,
    "FILE": "4736220",
    "GP_ID": "288143322",
    "TLE_LINE0": "0 GALILEO 12 (269)",
    "TLE_LINE1": "1 41174U 15079A   25141.78713993  .00000062  00000-0  00000-0 0  9997",
    "TLE_LINE2": "2 41174  55.5962 112.0090 0005535 322.7991  37.1380  1.70474021 58107"
}